#cP2017  3 31  0  0  0.00000000      96 ORBIT IGS14 HLM  IGS
## 1942 432000.00000000   900.00000000 57843 0.0000000000000
+   32   G01G02G03G04G05G06G07G08G09G10G11G12G13G14G15G16G17
+        G18G19G20G21G22G23G24G25G26G27G28G29G30G31G32  0  0
+          0  0  0  0  0  0  0  0  0  0  0  0  0  0  0  0  0
+          0  0  0  0  0  0  0  0  0  0  0  0  0  0  0  0  0
+          0  0  0  0  0  0  0  0  0  0  0  0  0  0  0  0  0
++         2  2  2  0  2  2  2  2  2  3  2  2  2  2  2  3  2
++         3  2  2  2  2  2  2  2  2  2  2  2  2  2  2  0  0
++         0  0  0  0  0  0  0  0  0  0  0  0  0  0  0  0  0
++         0  0  0  0  0  0  0  0  0  0  0  0  0  0  0  0  0
++         0  0  0  0  0  0  0  0  0  0  0  0  0  0  0  0  0
%c G  cc GPS ccc cccc cccc cccc cccc ccccc ccccc ccccc ccccc
%c cc cc ccc ccc cccc cccc cccc cccc ccccc ccccc ccccc ccccc
%f  1.2500000  1.025000000  0.00000000000  0.000000000000000
%f  0.0000000  0.000000000  0.00000000000  0.000000000000000
%i    0    0    0    0      0      0      0      0         0
%i    0    0    0    0      0      0      0      0         0
/* FINAL ORBIT COMBINATION FROM WEIGHTED AVERAGE OF:        
/* cod emr esa gfz grg jpl mit ngs sio                      
/* REFERENCED TO IGS TIME (IGST) AND TO WEIGHTED MEAN POLE: 
/* PCV:IGS14_1930 OL/AL:FES2004  NONE     Y  ORB:CMB CLK:CMB
*  2017  3 31 16 30  0.00000000
PG01 -22292.219885 -14274.782339  -3635.504299     52.450736  4  5  4 107       
PG02   4760.306046  17781.531629  19760.405061    448.398987  3  9  6 106       
PG03 -13071.878555 -15143.341172  17482.700048   -105.742954  4  4  5  67       
PG04   7754.684002 -21807.747735  12548.922958 999999.999999
PG05   2331.550759  26339.649490   -681.000288    -53.000531  2  8  3  85       
PG06 -10593.716426  11350.894469  21574.069760    331.821230  4  7  5  94       
PG07 -24415.994827  -5824.503733  -9145.286011    367.352397  5  7  4  85       
PG08  -8079.602985 -12718.727908 -21812.644784    -54.690408  7  6  5  72       
PG09 -23245.456690   5703.313600  11499.397649    333.347932  5  4  2  87       
PG10  11214.799721 -16599.395068 -17359.365454    -85.049716  8 10  5  57       
PG11 -20101.281206 -11959.924705 -13104.551787   -678.363625  6  6  4 106       
PG12   9909.607459  19410.819209  15176.484095    386.200677  5  6  5  70       
PG13   -981.931354  16508.039086 -20918.172680    -76.138054  1  8  6  94       
PG14  15673.970003 -17966.959543  11792.971533    -65.059505  7  9  3  93       
PG15  11943.990040  10871.658726 -21278.546567   -346.863991  2  4  5  76       
PG16    334.497858 -26331.092894   -367.845042     30.245086  6 10  6 116       
PG17 -21291.427375  15379.388427   3678.892703   -185.889135  8  9  6  61       
PG18  14950.395746  -5928.581374 -20539.707294    607.838558  4  8  2  86       
PG19 -17706.078499  17049.512994  10165.657309   -508.709673  9  9  6  71       
PG20  13437.108332  18159.199227 -14116.824605    466.366260  5  8  2  49       
PG21  22671.818885   -152.349905 -13159.691389   -514.723662  5  7  4  93       
PG22 -10581.794634 -21747.568088  11135.227176     55.889340  4  7  6  86       
PG23 -17688.590183  -5179.441937  19501.782964   -208.827160  3  4  4  77       
PG24  21168.031816  14989.726336  -6364.900686    -32.732109  2  5  2  87       
PG25  14726.268508   4917.038757  21436.475078   -361.929020  5  5  3  71       
PG26   5411.652002 -23974.114116   9956.103295   -516.241667  7  9  4  79       
PG27   4708.418071 -18268.695906 -18651.053419    233.074275  6  5  4  22       
PG28 -12638.173220  13156.875106 -18674.171941    601.279643  6  9  5  94       
PG29  22448.345100  -2067.317502  14015.865311    616.203849  6  8  2  96       
PG30 -18048.214453   5105.381862 -18860.460591    159.614522  4  6  4 107       
PG31   9411.735136 -12003.761322  21837.571387    210.088585  7  8  3  99       
PG32  20568.929687 -16436.766467   3329.402245   -370.387179  5  7  3  97       
*  2017  3 31 16 45  0.00000000
PG01 -21697.167761 -14227.369269  -6410.907385     52.451394  4  5  4  94       
PG02   2675.527485  17019.054077  20793.491973    448.392389  3  9  7 100       
PG03 -13070.783255 -17045.294760  15637.778387   -105.742129  4  4  5  67       
PG04   8026.938902 -20214.776117  14824.667374 999999.999999
PG05   2012.709027  26277.971505   2157.101677    -52.998764  2  8  3  42       
PG06 -12771.526158  10283.752319  20920.366665    331.825742  4  7  5  92       
PG07 -25137.027485  -6409.412326  -6499.817759    367.348687  5  8  4  97       
PG08  -6037.665085 -14151.503167 -21582.440092    -54.691121  7  5  5  94       
PG09 -22193.668411   4676.947889  13803.199371    333.354859  5  5  2  77       
PG10  11549.235723 -14536.522801 -18927.041152    -85.043696  8 11  4  53       
PG11 -18538.902374 -12196.623592 -15126.178012   -678.365639  5  6  4  85       
PG12   9833.647170  21033.986434  12938.434371    386.199937  5  7  5  14       
PG13  -3047.075453  17533.466120 -19856.121024    -76.139287  2  8  7  89       
PG14  16799.865679 -18372.848428   9280.940540    -65.061107  6 10  3  87       
PG15  10066.328678  12393.042012 -21385.461009   -346.864490  2  5  5  90       
PG16    538.408290 -26193.002232   2566.514131     30.245629  6 10  6 103       
PG17 -21587.655464  15317.182588    791.547718   -185.887658  8  9  6  54       
PG18  15324.164879  -3453.459769 -20838.822556    607.840479  4  7  2  92       
PG19 -18695.332571  17407.536063   7539.497297   -508.708464  9 10  6  60       
PG20  13434.664697  19660.297872 -11913.665366    466.367485  5  9  2  66       
PG21  23934.030643    676.661528 -10853.703616   -514.721974  5  7  4 110       
PG22 -10410.259967 -22890.613072   8673.347631     55.878516  4  8  7  77       
PG23 -15915.205534  -6552.652365  20560.422227   -208.827854  4  4  4  88       
PG24  20271.092097  14887.617211  -8991.889478    -32.732850  3  5  2  31       
PG25  14880.845906   7342.094309  20645.998016   -361.935082  5  5  2  77       
PG26   5765.458438 -22720.124090  12404.980653   -516.239871  7  9  5  82       
PG27   6447.171048 -19332.494970 -16960.418854    233.079882  6  5  4  29       
PG28 -12747.050899  10826.107337 -20005.351543    601.282535  5  8  4  97       
PG29  21060.939299  -1036.195747  16127.452200    616.201290  6  7  2 103       
PG30 -19793.630508   3984.886787 -17327.293040    159.614047  4  5  3 115       
PG31  11591.203462 -10877.943826  21407.864018    210.086428  7  8  3 101       
PG32  20899.163544 -16347.377484    486.585088   -370.398070  5  7  3  83       
*  2017  3 31 17  0  0.00000000
PG01 -20816.816333 -14097.488230  -9078.012133     52.452042  4  5  4  93       
PG02    463.206888  16333.175356  21486.058341    448.385956  3 10  7 102       
PG03 -13136.203107 -18722.959645  13524.018742   -105.741265  4  5  5  76       
PG04   8415.975859 -18394.402646  16838.313043 999999.999999
PG05   1639.535379  25915.950359   4957.574571    -52.997106  1  9  4  90       
PG06 -14915.075874   9368.106685  19907.513953    331.830283  4  7  5  87       
PG07 -25608.281863  -6835.345951  -3744.731601    367.345231  5  8  3  81       
PG08  -4110.401644 -15660.708063 -20978.562384    -54.692582  7  5  5  78       
PG09 -21003.133299   3442.664060  15869.204495    333.361761  5  5  2  68       
PG10  12013.461673 -12336.884039 -20167.280034    -85.037623  8 11  4  79       
PG11 -16782.773091 -12500.617790 -16896.005059   -678.367480  5  5  5  89       
PG12   9826.827739  22391.497172  10478.209801    386.199535  5  8  5  66       
PG13  -4936.237403  18595.648938 -18456.363494    -76.141207  2  9  7  90       
PG14  17662.472079 -18672.207433   6609.368302    -65.062217  5 10  2  87       
PG15   8266.587445  13998.957659 -21129.651906   -346.865521  2  6  5  60       
PG16    774.418261 -25732.895200   5455.493118     30.246514  6 10  6 103       
PG17 -21621.328216  15076.261363  -2109.506804   -185.886044  7  9  6  86       
PG18  15810.342683   -986.981237 -20759.959749    607.842552  3  7  2  99       
PG19 -19405.778001  17654.666956   4784.618195   -508.706997  9 10  6  79       
PG20  13440.994282  20909.445211  -9506.993952    466.369103  5  9  3  77       
PG21  24972.374166   1345.416632  -8355.022598   -514.720011  4  7  5 110       
PG22 -10237.345178 -23762.087860   6062.885270     55.868046  5  8  6  64       
PG23 -14134.291133  -8077.906626  21275.169896   -208.828623  4  4  4  81       
PG24  19101.007751  14733.140175 -11466.697462    -32.733500  3  6  2  75       
PG25  15151.595192   9643.274284  19497.345193   -361.941055  5  5  1  55       
PG26   6225.024091 -21224.076322  14639.408430   -516.238051  7  9  5  85       
PG27   7964.622364 -20358.620254 -14976.387702    233.085489  6  6  3  56       
PG28 -12993.424256   8368.200087 -20972.768741    601.285125  5  7  4  99       
PG29  19549.655179    198.859506  17961.085262    616.199212  5  7  2  96       
PG30 -21421.022824   3034.904144 -15497.493045    159.613555  4  4  3 114       
PG31  13761.493678  -9899.569795  20614.074863    210.084612  7  8  2  95       
PG32  20982.146492 -16073.048322  -2364.625342   -370.408942  5  7  4  89       
EOF
